start=new Date('2022-03-24T00:00:00.000Z').valueOf();
sats=[{"GP_ID":"199474330","REV_AT_EPOCH":"10070","SITE":"AFETR","MEAN_ANOMALY":"300.5697","EPHEMERIS_TYPE":"0","TLE_LINE2":"2 45690  52.9995  73.4892 0001597  59.5449 300.5697 15.05593791100709","LAUNCH_DATE":"2020-06-04","NORAD_CAT_ID":"45690","MEAN_ELEMENT_THEORY":"SGP4","COUNTRY_CODE":"US","RCS_SIZE":"LARGE","ARG_OF_PERICENTER":"59.5449","MEAN_MOTION":"15.05593791","FILE":"3371208","RA_OF_ASC_NODE":"73.4892","TIME_SYSTEM":"UTC","ECCENTRICITY":"0.00015970","OBJECT_TYPE":"PAYLOAD","ELEMENT_SET_NO":"999","INCLINATION":"52.9995","CENTER_NAME":"EARTH","TLE_LINE1":"1 45690U 20035AK  22082.46138061  .00001718  00000-0  13702-3 0  9990","EPOCH":"2022-03-23T11:04:23.284704","CLASSIFICATION_TYPE":"U","BSTAR":"0.00013702000000","PERIOD":"95.643","OBJECT_ID":"2020-035AK","DECAY_DATE":null,"MEAN_MOTION_DOT":"0.00001718","MEAN_MOTION_DDOT":"0.0000000000000","OBJECT_NAME":"STARLINK-1414","REF_FRAME":"TEME","SEMIMAJOR_AXIS":"6927.821","PERIAPSIS":"548.579","APOAPSIS":"550.792"},{"TLE_LINE2":"2 45691  53.0535  73.8406 0001884  57.3394 302.7777 15.06411045100739","EPHEMERIS_TYPE":"0","GP_ID":"199474579","REV_AT_EPOCH":"10073","MEAN_ANOMALY":"302.7777","SITE":"AFETR","ARG_OF_PERICENTER":"57.3394","FILE":"3371208","MEAN_MOTION":"15.06411045","LAUNCH_DATE":"2020-06-04","MEAN_ELEMENT_THEORY":"SGP4","NORAD_CAT_ID":"45691","COUNTRY_CODE":"US","RCS_SIZE":"LARGE","OBJECT_TYPE":"PAYLOAD","ELEMENT_SET_NO":"999","CENTER_NAME":"EARTH","INCLINATION":"53.0535","TLE_LINE1":"1 45691U 20035AL  22082.38125074  .00000934  00000-0  81565-4 0  9994","RA_OF_ASC_NODE":"73.8406","TIME_SYSTEM":"UTC","ECCENTRICITY":"0.00018840","MEAN_MOTION_DDOT":"0.0000000000000","REF_FRAME":"TEME","OBJECT_NAME":"STARLINK-1415","SEMIMAJOR_AXIS":"6925.315","PERIAPSIS":"545.875","APOAPSIS":"548.484","CLASSIFICATION_TYPE":"U","EPOCH":"2022-03-23T09:09:00.063936","BSTAR":"0.00008156500000","OBJECT_ID":"2020-035AL","PERIOD":"95.591","DECAY_DATE":null,"MEAN_MOTION_DOT":"0.00000934"},{"BSTAR":"-0.00007701400000","CLASSIFICATION_TYPE":"U","EPOCH":"2022-03-23T10:33:56.234880","DECAY_DATE":null,"MEAN_MOTION_DOT":"-0.00001429","OBJECT_ID":"2020-035AM","PERIOD":"95.592","REF_FRAME":"TEME","OBJECT_NAME":"STARLINK-1416","MEAN_MOTION_DDOT":"0.0000000000000","PERIAPSIS":"545.922","APOAPSIS":"548.483","SEMIMAJOR_AXIS":"6925.338","RA_OF_ASC_NODE":"73.5855","ECCENTRICITY":"0.00018490","TIME_SYSTEM":"UTC","ELEMENT_SET_NO":"999","OBJECT_TYPE":"PAYLOAD","TLE_LINE1":"1 45692U 20035AM  22082.44023420 -.00001429  00000-0 -77014-4 0  9990","CENTER_NAME":"EARTH","INCLINATION":"53.0545","MEAN_ELEMENT_THEORY":"SGP4","NORAD_CAT_ID":"45692","LAUNCH_DATE":"2020-06-04","RCS_SIZE":"LARGE","COUNTRY_CODE":"US","FILE":"3371208","MEAN_MOTION":"15.06403453","ARG_OF_PERICENTER":"55.3913","REV_AT_EPOCH":"10073","GP_ID":"199475325","MEAN_ANOMALY":"304.7250","SITE":"AFETR","EPHEMERIS_TYPE":"0","TLE_LINE2":"2 45692  53.0545  73.5855 0001849  55.3913 304.7250 15.06403453100734"},{"SEMIMAJOR_AXIS":"6925.384","APOAPSIS":"548.487","PERIAPSIS":"546.012","MEAN_MOTION_DDOT":"0.0000000000000","OBJECT_NAME":"STARLINK-1417","REF_FRAME":"TEME","PERIOD":"95.593","OBJECT_ID":"2020-035AN","DECAY_DATE":null,"MEAN_MOTION_DOT":"-0.00000081","EPOCH":"2022-03-23T07:49:24.157920","CLASSIFICATION_TYPE":"U","BSTAR":"0.00001348100000","CENTER_NAME":"EARTH","INCLINATION":"53.0553","TLE_LINE1":"1 45693U 20035AN  22082.32597405 -.00000081  00000-0  13481-4 0  9997","OBJECT_TYPE":"PAYLOAD","ELEMENT_SET_NO":"999","TIME_SYSTEM":"UTC","ECCENTRICITY":"0.00017870","RA_OF_ASC_NODE":"74.0897","ARG_OF_PERICENTER":"67.4920","MEAN_MOTION":"15.06388331","FILE":"3371208","COUNTRY_CODE":"US","RCS_SIZE":"LARGE","LAUNCH_DATE":"2020-06-04","NORAD_CAT_ID":"45693","MEAN_ELEMENT_THEORY":"SGP4","TLE_LINE2":"2 45693  53.0553  74.0897 0001787  67.4920 292.6258 15.06388331100717","EPHEMERIS_TYPE":"0","SITE":"AFETR","MEAN_ANOMALY":"292.6258","GP_ID":"199475567","REV_AT_EPOCH":"10071"},{"MEAN_ANOMALY":"296.1029","SITE":"AFETR","REV_AT_EPOCH":"10076","GP_ID":"199535125","TLE_LINE2":"2 45694  53.0545  72.5537 0001786  64.0143 296.1029 15.06397887100768","EPHEMERIS_TYPE":"0","RCS_SIZE":"LARGE","COUNTRY_CODE":"US","MEAN_ELEMENT_THEORY":"SGP4","NORAD_CAT_ID":"45694","LAUNCH_DATE":"2020-06-04","FILE":"3371636","MEAN_MOTION":"15.06397887","ARG_OF_PERICENTER":"64.0143","ECCENTRICITY":"0.00017860","TIME_SYSTEM":"UTC","RA_OF_ASC_NODE":"72.5537","TLE_LINE1":"1 45694U 20035AP  22082.66507611 -.00000798  00000-0 -34675-4 0  9999","INCLINATION":"53.0545","CENTER_NAME":"EARTH","ELEMENT_SET_NO":"999","OBJECT_TYPE":"PAYLOAD","DECAY_DATE":null,"MEAN_MOTION_DOT":"-0.00000798","OBJECT_ID":"2020-035AP","PERIOD":"95.592","BSTAR":"-0.00003467500000","CLASSIFICATION_TYPE":"U","EPOCH":"2022-03-23T15:57:42.575904","PERIAPSIS":"545.983","APOAPSIS":"548.457","SEMIMAJOR_AXIS":"6925.355","REF_FRAME":"TEME","OBJECT_NAME":"STARLINK-1419","MEAN_MOTION_DDOT":"0.0000000000000"},{"DECAY_DATE":null,"MEAN_MOTION_DOT":"-0.00001075","PERIOD":"95.592","OBJECT_ID":"2020-035AQ","BSTAR":"-0.00005324800000","EPOCH":"2022-03-23T07:52:03.364608","CLASSIFICATION_TYPE":"U","PERIAPSIS":"545.919","APOAPSIS":"548.530","SEMIMAJOR_AXIS":"6925.359","OBJECT_NAME":"STARLINK-1420","REF_FRAME":"TEME","MEAN_MOTION_DDOT":"0.0000000000000","ECCENTRICITY":"0.00018850","TIME_SYSTEM":"UTC","RA_OF_ASC_NODE":"54.0663","TLE_LINE1":"1 45695U 20035AQ  22082.32781672 -.00001075  00000-0 -53248-4 0  9990","INCLINATION":"53.0551","CENTER_NAME":"EARTH","ELEMENT_SET_NO":"999","OBJECT_TYPE":"PAYLOAD","RCS_SIZE":"LARGE","COUNTRY_CODE":"US","NORAD_CAT_ID":"45695","MEAN_ELEMENT_THEORY":"SGP4","LAUNCH_DATE":"2020-06-04","MEAN_MOTION":"15.06396555","FILE":"3371208","ARG_OF_PERICENTER":"56.9493","SITE":"AFETR","MEAN_ANOMALY":"303.1676","REV_AT_EPOCH":"10100","GP_ID":"199475080","TLE_LINE2":"2 45695  53.0551  54.0663 0001885  56.9493 303.1676 15.06396555101005","EPHEMERIS_TYPE":"0"},{"MEAN_ANOMALY":"320.8251","SITE":"AFETR","GP_ID":"199535626","REV_AT_EPOCH":"10076","TLE_LINE2":"2 45696  53.0545  72.5401 0002208  39.2897 320.8251 15.06397873100767","EPHEMERIS_TYPE":"0","COUNTRY_CODE":"US","RCS_SIZE":"LARGE","LAUNCH_DATE":"2020-06-04","MEAN_ELEMENT_THEORY":"SGP4","NORAD_CAT_ID":"45696","ARG_OF_PERICENTER":"39.2897","FILE":"3371636","MEAN_MOTION":"15.06397873","TIME_SYSTEM":"UTC","ECCENTRICITY":"0.00022080","RA_OF_ASC_NODE":"72.5401","CENTER_NAME":"EARTH","INCLINATION":"53.0545","TLE_LINE1":"1 45696U 20035AR  22082.66876432  .00000777  00000-0  71084-4 0  9991","OBJECT_TYPE":"PAYLOAD","ELEMENT_SET_NO":"999","OBJECT_ID":"2020-035AR","PERIOD":"95.592","MEAN_MOTION_DOT":"0.00000777","DECAY_DATE":null,"CLASSIFICATION_TYPE":"U","EPOCH":"2022-03-23T16:03:01.237248","BSTAR":"0.00007108400000","SEMIMAJOR_AXIS":"6925.355","APOAPSIS":"548.749","PERIAPSIS":"545.691","MEAN_MOTION_DDOT":"0.0000000000000","REF_FRAME":"TEME","OBJECT_NAME":"STARLINK-1422"},{"MEAN_MOTION":"15.06400520","FILE":"3371636","ARG_OF_PERICENTER":"63.5005","RCS_SIZE":"LARGE","COUNTRY_CODE":"US","NORAD_CAT_ID":"45697","MEAN_ELEMENT_THEORY":"SGP4","LAUNCH_DATE":"2020-06-04","TLE_LINE2":"2 45697  53.0553  52.6579 0001748  63.5005 296.6163 15.06400520101050","EPHEMERIS_TYPE":"0","SITE":"AFETR","MEAN_ANOMALY":"296.6163","REV_AT_EPOCH":"10105","GP_ID":"199536377","APOAPSIS":"548.423","PERIAPSIS":"546.001","SEMIMAJOR_AXIS":"6925.347","OBJECT_NAME":"STARLINK-1351","REF_FRAME":"TEME","MEAN_MOTION_DDOT":"0.0000000000000","DECAY_DATE":null,"MEAN_MOTION_DOT":"0.00003007","PERIOD":"95.592","OBJECT_ID":"2020-035AS","BSTAR":"0.00022068000000","EPOCH":"2022-03-23T15:28:31.457856","CLASSIFICATION_TYPE":"U","TLE_LINE1":"1 45697U 20035AS  22082.64480854  .00003007  00000-0  22068-3 0  9995","CENTER_NAME":"EARTH","INCLINATION":"53.0553","ELEMENT_SET_NO":"999","OBJECT_TYPE":"PAYLOAD","ECCENTRICITY":"0.00017480","TIME_SYSTEM":"UTC","RA_OF_ASC_NODE":"52.6579"},{"SEMIMAJOR_AXIS":"6925.340","PERIAPSIS":"545.868","APOAPSIS":"548.542","MEAN_MOTION_DDOT":"0.0000000000000","REF_FRAME":"TEME","OBJECT_NAME":"STARLINK-1370","OBJECT_ID":"2020-035AT","PERIOD":"95.592","MEAN_MOTION_DOT":"0.00000859","DECAY_DATE":null,"CLASSIFICATION_TYPE":"U","EPOCH":"2022-03-23T21:34:44.851008","BSTAR":"0.00007653900000","CENTER_NAME":"EARTH","INCLINATION":"53.0553","TLE_LINE1":"1 45698U 20035AT  22082.89913022  .00000859  00000-0  76539-4 0  9996","OBJECT_TYPE":"PAYLOAD","ELEMENT_SET_NO":"999","TIME_SYSTEM":"UTC","ECCENTRICITY":"0.00019310","RA_OF_ASC_NODE":"51.5188","ARG_OF_PERICENTER":"62.7603","FILE":"3371636","MEAN_MOTION":"15.06402862","COUNTRY_CODE":"US","RCS_SIZE":"LARGE","LAUNCH_DATE":"2020-06-04","MEAN_ELEMENT_THEORY":"SGP4","NORAD_CAT_ID":"45698","TLE_LINE2":"2 45698  53.0553  51.5188 0001931  62.7603 297.3582 15.06402862101092","EPHEMERIS_TYPE":"0","MEAN_ANOMALY":"297.3582","SITE":"AFETR","GP_ID":"199534625","REV_AT_EPOCH":"10109"},{"OBJECT_ID":"2020-035AU","PERIOD":"95.592","DECAY_DATE":null,"MEAN_MOTION_DOT":"0.00000226","CLASSIFICATION_TYPE":"U","EPOCH":"2022-03-23T21:18:49.699008","BSTAR":"0.00003406300000","SEMIMAJOR_AXIS":"6925.355","PERIAPSIS":"545.916","APOAPSIS":"548.524","MEAN_MOTION_DDOT":"0.0000000000000","REF_FRAME":"TEME","OBJECT_NAME":"STARLINK-1398","TIME_SYSTEM":"UTC","ECCENTRICITY":"0.00018830","RA_OF_ASC_NODE":"51.5673","CENTER_NAME":"EARTH","INCLINATION":"53.0573","TLE_LINE1":"1 45699U 20035AU  22082.88807522  .00000226  00000-0  34063-4 0  9997","OBJECT_TYPE":"PAYLOAD","ELEMENT_SET_NO":"999","COUNTRY_CODE":"US","RCS_SIZE":"LARGE","LAUNCH_DATE":"2020-06-04","MEAN_ELEMENT_THEORY":"SGP4","NORAD_CAT_ID":"45699","ARG_OF_PERICENTER":"58.7522","FILE":"3371636","MEAN_MOTION":"15.06397834","MEAN_ANOMALY":"301.3651","SITE":"AFETR","GP_ID":"199534875","REV_AT_EPOCH":"10108","EPHEMERIS_TYPE":"0","TLE_LINE2":"2 45699  53.0573  51.5673 0001883  58.7522 301.3651 15.06397834101089"}];
